NORAD_CAT_ID,OBJECT_NAME,OBJECT_TYPE,EPOCH,MEAN_MOTION,ECCENTRICITY,INCLINATION,RA_OF_ASC_NODE,ARG_OF_PERICENTER,MEAN_ANOMALY,BSTAR,MEAN_MOTION_DOT,MEAN_MOTION_DDOT,TLE_LINE0,TLE_LINE1,TLE_LINE2,SEMIMAJOR_AXIS,PERIOD,APOGEE,PERIGEE,DECAYED
55741.0,STARLINK-5592,PAYLOAD,2024-05-18 08:13:15,14.98331235,0.0003096,69.9993,109.5451,272.7005,87.3799,4.8527e-05,4.86e-06,0.0,0 STARLINK-5592,1 55741U 23028A   24139.34253530  .00000486  00000-0  48527-4 0  9999,2 55741  69.9993 109.5451 0003096 272.7005  87.3799 14.98331235 67314,6950.189,96.107,574.206,569.902,0.0
55741.0,STARLINK-5592,PAYLOAD,2024-05-18 21:02:20,14.983278,0.0002887,69.9999,108.1984,274.3309,85.752,-6.53e-05,-8.72e-06,0.0,0 STARLINK-5592,1 55741U 23028A   24139.87662157 -.00000872  00000-0 -65300-4 0  9995,2 55741  69.9999 108.1984 0002887 274.3309  85.7520 14.98327800 67191,6950.2,96.107,574.071,570.058,0.0
55741.0,STARLINK-5592,PAYLOAD,2024-05-18 22:38:28,14.98327566,0.000289,69.9999,108.0301,274.3399,85.743,-6.6825e-05,-8.9e-06,0.0,0 STARLINK-5592,1 55741U 23028A   24139.94338180 -.00000890  00000-0 -66825-4 0  9992,2 55741  69.9999 108.0301 0002890 274.3399  85.7430 14.98327566 67409,6950.2,96.107,574.074,570.057,0.0
55741.0,STARLINK-5592,PAYLOAD,2024-05-19 08:15:16,14.98327824,0.0002714,70.0004,107.0203,276.5637,83.5213,-2.4515e-05,-3.85e-06,0.0,0 STARLINK-5592,1 55741U 23028A   24140.34394151 -.00000385  00000-0 -24515-4 0  9997,2 55741  70.0004 107.0203 0002714 276.5637  83.5213 14.98327824 67461,6950.2,96.107,573.951,570.178,0.0
55741.0,STARLINK-5592,PAYLOAD,2024-05-19 21:04:20,14.98326598,0.0002933,69.9998,105.6738,276.3105,83.772,7.7454e-05,8.31e-06,0.0,0 STARLINK-5592,1 55741U 23028A   24140.87801939  .00000831  00000-0  77454-4 0  9996,2 55741  69.9998 105.6738 0002933 276.3105  83.7720 14.98326598 67347,6950.203,96.107,574.107,570.03,0.0
55741.0,STARLINK-5592,PAYLOAD,2024-05-20 06:41:08,14.98330759,0.0002852,70.0002,104.6646,271.5872,88.496,0.0001255,1.405e-05,0.0,0 STARLINK-5592,1 55741U 23028A   24141.27857566  .00001405  00000-0  12550-3 0  9991,2 55741  70.0002 104.6646 0002852 271.5872  88.4960 14.98330759 67602,6950.191,96.107,574.038,570.073,0.0
55741.0,STARLINK-5592,PAYLOAD,2024-05-20 21:06:21,14.9832684,0.0002457,70.0007,103.1499,262.308,97.78,8.0082e-05,8.63e-06,0.0,0 STARLINK-5592,1 55741U 23028A   24141.87941936  .00000863  00000-0  80082-4 0  9995,2 55741  70.0007 103.1499 0002457 262.3080  97.7800 14.98326840 67496,6950.203,96.107,573.775,570.36,0.0
55741.0,STARLINK-5592,PAYLOAD,2024-05-21 06:43:10,14.98322764,0.000264,70.0002,102.1394,262.2065,97.8794,3.315e-05,3.03e-06,0.0,0 STARLINK-5592,1 55741U 23028A   24142.27998418  .00000303  00000-0  33150-4 0  9990,2 55741  70.0002 102.1394 0002640 262.2065  97.8794 14.98322764 67753,6950.215,96.107,573.915,570.245,0.0
55741.0,STARLINK-5592,PAYLOAD,2024-05-21 21:08:22,14.98332616,0.0002727,70.0,100.6241,259.4547,100.6304,5.5015e-06,-2.7e-07,0.0,0 STARLINK-5592,1 55741U 23028A   24142.88081893 -.00000027  00000-0  55015-5 0  9996,2 55741  70.0000 100.6241 0002727 259.4547 100.6304 14.98332616 67649,6950.185,96.107,573.945,570.154,0.0
55741.0,STARLINK-5592,PAYLOAD,2024-05-21 22:44:30,14.98332736,0.0002759,69.9999,100.4558,256.2109,103.8743,4.8806e-06,-3.5e-07,0.0,0 STARLINK-5592,1 55741U 23028A   24142.94757849 -.00000035  00000-0  48806-5 0  9993,2 55741  69.9999 100.4558 0002759 256.2109 103.8743 14.98332736 67854,6950.184,96.107,573.967,570.132,0.0
55741.0,STARLINK-5592,PAYLOAD,2024-05-22 06:45:10,14.98334869,0.0002759,69.9999,99.6141,259.2053,100.8795,2.7529e-05,2.36e-06,0.0,0 STARLINK-5592,1 55741U 23028A   24143.28137606  .00000236  00000-0  27529-4 0  9994,2 55741  69.9999  99.6141 0002759 259.2053 100.8795 14.98334869 67901,6950.178,96.107,573.96,570.125,0.0
55741.0,STARLINK-5592,PAYLOAD,2024-05-22 21:10:23,14.98326701,0.000273,70.0001,98.0992,257.9642,102.1212,5.8814e-05,6.09e-06,0.0,0 STARLINK-5592,1 55741U 23028A   24143.88221970  .00000609  00000-0  58814-4 0  9993,2 55741  70.0001  98.0992 0002730 257.9642 102.1212 14.98326701 67795,6950.203,96.107,573.965,570.171,0.0
55741.0,STARLINK-5592,PAYLOAD,2024-05-23 06:47:12,14.98326955,0.0002762,70.0001,97.0899,260.8958,99.1889,5.1818e-05,5.25e-06,0.0,0 STARLINK-5592,1 55741U 23028A   24144.28278079  .00000525  00000-0  51818-4 0  9994,2 55741  70.0001  97.0899 0002762 260.8958  99.1889 14.98326955 68054,6950.202,96.107,573.987,570.148,0.0
55741.0,STARLINK-5592,PAYLOAD,2024-05-23 21:12:24,14.98334855,0.0002817,70.0,95.5755,262.079,98.005,2.732e-05,2.33e-06,0.0,0 STARLINK-5592,1 55741U 23028A   24144.88361617  .00000233  00000-0  27320-4 0  9998,2 55741  70.0000  95.5755 0002817 262.0790  98.0050 14.98334855 68142,6950.178,96.107,574.001,570.085,0.0
55741.0,STARLINK-5592,PAYLOAD,2024-05-24 03:36:56,14.98336837,0.0002784,69.9999,94.9017,261.1522,98.9322,5.1449e-05,5.21e-06,0.0,0 STARLINK-5592,1 55741U 23028A   24145.15065331  .00000521  00000-0  51449-4 0  9992,2 55741  69.9999  94.9017 0002784 261.1522  98.9322 14.98336837 67980,6950.172,96.107,573.972,570.102,0.0
55741.0,STARLINK-5592,PAYLOAD,2024-05-24 06:49:12,14.98339803,0.0002758,70.0001,94.5655,261.0536,99.0311,8.3358e-05,9.02e-06,0.0,0 STARLINK-5592,1 55741U 23028A   24145.28416993  .00000902  00000-0  83358-4 0  9997,2 55741  70.0001  94.5655 0002758 261.0536  99.0311 14.98339803 68208,6950.163,96.106,573.944,570.111,0.0
55741.0,STARLINK-5592,PAYLOAD,2024-05-24 21:14:25,14.98325346,0.0002454,70.0009,93.0504,263.7113,96.3766,3.1425e-05,2.82e-06,0.0,0 STARLINK-5592,1 55741U 23028A   24145.88501978  .00000282  00000-0  31425-4 0  9990,2 55741  70.0009  93.0504 0002454 263.7113  96.3766 14.98325346 68094,6950.207,96.107,573.778,570.367,0.0
55741.0,STARLINK-5592,PAYLOAD,2024-05-24 22:50:33,14.98365055,0.0002269,70.0008,92.8816,255.9207,104.17,-0.00062869,-7.593e-05,0.0,0 STARLINK-5592,1 55741U 23028A   24145.95177572 -.00007593  00000-0 -62869-3 0  9996,2 55741  70.0008  92.8816 0002269 255.9207 104.1700 14.98365055 68308,6950.084,96.105,573.526,570.373,0.0
55741.0,STARLINK-5592,PAYLOAD,2024-05-25 13:15:46,14.98325099,0.0002663,70.0002,91.3665,262.8944,97.1912,5.6543e-05,5.82e-06,0.0,0 STARLINK-5592,1 55741U 23028A   24146.55262032  .00000582  00000-0  56543-4 0  9991,2 55741  70.0002  91.3665 0002663 262.8944  97.1912 14.98325099 68390,6950.208,96.107,573.924,570.222,0.0
55741.0,STARLINK-5592,PAYLOAD,2024-05-26 03:40:58,14.98328035,0.0002636,70.0,89.8517,263.3543,96.7316,-4.8881e-05,-6.76e-06,0.0,0 STARLINK-5592,1 55741U 23028A   24147.15346048 -.00000676  00000-0 -48881-4 0  9990,2 55741  70.0000  89.8517 0002636 263.3543  96.7316 14.98328035 68281,6950.199,96.107,573.896,570.232,0.0
55741.0,STARLINK-5592,PAYLOAD,2024-05-26 05:17:06,14.98332652,0.000266,70.0002,89.6842,261.8521,98.2336,-2.2506e-05,-3.61e-06,0.0,0 STARLINK-5592,1 55741U 23028A   24147.22021701 -.00000361  00000-0 -22506-4 0  9991,2 55741  70.0002  89.6842 0002660 261.8521  98.2336 14.98332652 68490,6950.185,96.107,573.898,570.201,0.0
55741.0,STARLINK-5592,PAYLOAD,2024-05-26 22:54:35,14.98325031,0.000286,70.0002,87.8325,262.8928,97.1906,4.8427e-05,4.85e-06,0.0,0 STARLINK-5592,1 55741U 23028A   24147.95457897  .00000485  00000-0  48427-4 0  9995,2 55741  70.0002  87.8325 0002860 262.8928  97.1906 14.98325031 68607,6950.208,96.107,574.061,570.085,0.0
55741.0,STARLINK-5592,PAYLOAD,2024-05-27 03:43:01,14.98302485,0.0003002,69.9999,87.3269,266.7829,93.2986,-0.00019839,-2.458e-05,0.0,0 STARLINK-5592,1 55741U 23028A   24148.15488218 -.00002458  00000-0 -19839-3 0  9997,2 55741  69.9999  87.3269 0003002 266.7829  93.2986 14.98302485 68437,6950.278,96.109,574.229,570.057,0.0
55741.0,STARLINK-5592,PAYLOAD,2024-05-27 05:19:10,14.98301997,0.0002883,70.0002,87.1585,266.6369,93.446,-0.00024335,-2.993e-05,0.0,0 STARLINK-5592,1 55741U 23028A   24148.22164468 -.00002993  00000-0 -24335-3 0  9994,2 55741  70.0002  87.1585 0002883 266.6369  93.4460 14.98301997 68647,6950.279,96.109,574.148,570.141,0.0
55741.0,STARLINK-5592,PAYLOAD,2024-05-27 19:44:21,14.98317226,0.0002643,70.0007,85.6457,255.2077,104.8789,-8.2732e-05,-1.08e-05,0.0,0 STARLINK-5592,1 55741U 23028A   24148.82247668 -.00001080  00000-0 -82732-4 0  9996,2 55741  70.0007  85.6457 0002643 255.2077 104.8789 14.98317226 68538,6950.232,96.108,573.934,570.26,0.0
55741.0,STARLINK-5592,PAYLOAD,2024-05-27 22:56:37,14.9831892,0.0002761,70.0011,85.309,247.9857,112.1008,-5.3376e-05,-7.3e-06,0.0,0 STARLINK-5592,1 55741U 23028A   24148.95599527 -.00000730  00000-0 -53376-4 0  9997,2 55741  70.0011  85.3090 0002761 247.9857 112.1008 14.98318920 68750,6950.227,96.108,574.011,570.173,0.0
55741.0,STARLINK-5592,PAYLOAD,2024-05-28 03:45:02,14.9832178,0.0002677,70.0013,84.8044,238.9188,121.1709,-1.4935e-05,-2.71e-06,0.0,0 STARLINK-5592,1 55741U 23028A   24149.15627349 -.00000271  00000-0 -14935-4 0  9992,2 55741  70.0013  84.8044 0002677 238.9188 121.1709 14.98321780 68585,6950.218,96.108,573.944,570.223,0.0
55741.0,STARLINK-5592,PAYLOAD,2024-05-28 13:21:50,14.98322913,0.0002674,70.0011,83.7933,248.1348,111.9527,-3.1071e-06,-1.3e-06,0.0,0 STARLINK-5592,1 55741U 23028A   24149.55683494 -.00000130  00000-0 -31071-5 0  9994,2 55741  70.0011  83.7933 0002674 248.1348 111.9527 14.98322913 68849,6950.215,96.107,573.938,570.221,0.0
55741.0,STARLINK-5592,PAYLOAD,2024-05-28 19:46:21,14.9832179,0.0003424,69.9992,83.1155,272.8048,87.2719,0.00031302,3.643e-05,0.0,0 STARLINK-5592,1 55741U 23028A   24149.82386395  .00003643  00000-0  31302-3 0  9999,2 55741  69.9992  83.1155 0003424 272.8048  87.2719 14.98321790 68681,6950.218,96.108,574.463,569.704,0.0
55741.0,STARLINK-5592,PAYLOAD,2024-05-28 21:22:29,14.98322505,0.000342,69.9992,82.947,272.66,87.4167,0.00031537,3.671e-05,0.0,0 STARLINK-5592,1 55741U 23028A   24149.89062382  .00003671  00000-0  31537-3 0  9994,2 55741  69.9992  82.9470 0003420 272.6600  87.4167 14.98322505 68893,6950.216,96.107,574.458,569.704,0.0
